ONEWEB-0156             
1 48052U 21025L   24187.46717238 -.00000064  00000+0 -20890-3 0  9992
2 48052  87.8930 101.8770 0001981  79.2092 280.9260 13.13468362160144
ONEWEB-0161             
1 48053U 21025M   24187.51636864  .00000336  00000+0  88441-3 0  9990
2 48053  87.8932 101.8748 0001767  75.0140 285.1184 13.13473036160081
ONEWEB-0158             
1 48054U 21025N   24187.47829135 -.00000253  00000+0 -72841-3 0  9998
2 48054  87.8930 101.8724 0002065  81.0523 279.0839 13.13469799160202
ONEWEB-0157             
1 48055U 21025P   24187.50207983 -.00000262  00000+0 -75234-3 0  9993
2 48055  87.8927 101.8826 0001783  81.4096 278.7235 13.13470070160140
ONEWEB-0162             
1 48056U 21025Q   24187.46558732  .00000045  00000+0  88594-4 0  9991
2 48056  87.8928 101.8854 0001951  79.6322 280.5027 13.13472315160112
ONEWEB-0155             
1 48057U 21025R   24187.48622628 -.00000261  00000+0 -75001-3 0  9990
2 48057  87.8929 101.8917 0001823  72.4060 287.7268 13.13470366160257
ONEWEB-0149             
1 48058U 21025S   24187.50684576  .00000156  00000+0  39242-3 0  9992
2 48058  87.8926 101.8840 0001891  85.2225 274.9120 13.13472884160061
ONEWEB-0148             
1 48059U 21025T   24187.47194200  .00000140  00000+0  34742-3 0  9992
2 48059  87.8932 101.9020 0001728  97.6956 262.4370 13.13465285160186
ONEWEB-0160             
1 48060U 21025U   24187.48781334 -.00000268  00000+0 -76796-3 0  9993
2 48060  87.8932 101.8945 0002927  79.1330 281.0129 13.13470442160131
ONEWEB-0163             
1 48061U 21025V   24187.47351893 -.00000178  00000+0 -52118-3 0  9998
2 48061  87.8930 101.8895 0001673  77.5175 282.6141 13.13468676160250
ONEWEB-0159             
1 48062U 21025W   24187.46241154  .00000145  00000+0  36238-3 0  9993
2 48062  87.8928 101.8751 0001780  81.7942 278.3389 13.13468737160172
ONEWEB-0164             
1 48063U 21025X   24187.52114543  .00000428  00000+0  11373-2 0  9998
2 48063  87.8928 101.8736 0002014  74.5051 285.6300 13.13471718160164
ONEWEB-0167             
1 48064U 21025Y   24187.47430803 -.00000164  00000+0 -48494-3 0  9997
2 48064  87.8931 101.8950 0001783  78.6445 281.4884 13.13468569160140
ONEWEB-0166             
1 48065U 21025Z   24187.49573162 -.00000403  00000+0 -11373-2 0  9997
2 48065  87.8925 101.8731 0001901  84.1271 276.0075 13.13469849160225
ONEWEB-0151             
1 48066U 21025AA  24187.49733671 -.00000122  00000+0 -36905-3 0  9998
2 48066  87.8928 101.8868 0002005  73.6995 286.4354 13.13472062160161
ONEWEB-0170             
1 48067U 21025AB  24187.50527333  .00000083  00000+0  19146-3 0  9999
2 48067  87.8929 101.8875 0002448  67.3679 292.7708 13.13469756160126
ONEWEB-0168             
1 48068U 21025AC  24187.49097173 -.00000472  00000+0 -13279-2 0  9996
2 48068  87.8933 101.8605 0001898  78.1146 282.0196 13.13469515160137
ONEWEB-0173             
1 48069U 21025AD  24187.48303944 -.00000277  00000+0 -79447-3 0  9995
2 48069  87.8932 101.8721 0001629  66.6889 293.4411 13.13469498160376
ONEWEB-0171             
1 48070U 21025AE  24187.51955225  .00000300  00000+0  78565-3 0  9991
2 48070  87.8932 101.9008 0001935  74.4557 285.6786 13.13469670160196
ONEWEB-0172             
1 48071U 21025AF  24187.49890533 -.00000383  00000+0 -10850-2 0  9994
2 48071  87.8932 101.8713 0001874  72.6535 287.4799 13.13470277161085
ONEWEB-0174             
1 48072U 21025AG  24187.48145255 -.00000283  00000+0 -80934-3 0  9998
2 48072  87.8933 101.8890 0001923  81.9533 278.1815 13.13468065160402
ONEWEB-0175             
1 48073U 21025AH  24187.51003314  .00000307  00000+0  80445-3 0  9994
2 48073  87.8925 101.8708 0002138  68.3851 291.7506 13.13469803160064
ONEWEB-0177             
1 48074U 21025AJ  24187.52274570  .00000368  00000+0  97154-3 0  9992
2 48074  87.8927 101.8765 0001518  79.7308 280.3992 13.13473507160254
ONEWEB-0178             
1 48075U 21025AK  24187.46413697  .00000081  00000+0  18751-3 0  9999
2 48075  87.8936 101.9073 0001776  77.2055 282.9273 13.13468352160292
ONEWEB-0108             
1 48076U 21025AL  24187.50050869 -.00000094  00000+0 -29250-3 0  9995
2 48076  87.8926 101.8782 0002100  83.4353 276.7015 13.13469672160224
ONEWEB-0169             
1 48077U 21025AM  24187.45606268  .00000250  00000+0  65077-3 0  9999
2 48077  87.8930 101.8976 0002101  83.7605 276.3764 13.13471658158871
ONEWEB-0176             
1 48210U 21031A   24187.40157138 -.00000236  00000+0 -67105-3 0  9997
2 48210  87.8955  71.3042 0001873  77.8667 282.2673 13.14500796154800
ONEWEB-0184             
1 48211U 21031B   24187.22238297  .00000192  00000+0  48329-3 0  9990
2 48211  87.8953  71.3231 0002182  50.2499 309.8822 13.14501772154752
ONEWEB-0179             
1 48212U 21031C   24187.57284575  .00000160  00000+0  39613-3 0  9990
2 48212  87.8954  71.2567 0001722  78.9704 281.1620 13.14502490154846
ONEWEB-0180             
1 48213U 21031D   24187.60613026  .00001248  00000+0  33311-2 0  9998
2 48213  87.8942  71.2449 0000947  97.4757 262.6481 13.14509032154731
ONEWEB-0218             
1 48214U 21031E   24187.24776125 -.00000071  00000+0 -22578-3 0  9998
2 48214  87.8952  71.3207 0001871  43.6527 316.4750 13.14503336154841
ONEWEB-0209             
1 48215U 21031F   24187.61725100 -.00000129  00000+0 -38126-3 0  9997
2 48215  87.8955  71.2816 0001646  80.1095 280.0220 13.14502542154897
ONEWEB-0198             
1 48216U 21031G   24187.60139468  .00000146  00000+0  35991-3 0  9997
2 48216  87.8956  71.2894 0001604  66.2467 293.8831 13.14502715155003
ONEWEB-0189             
1 48217U 21031H   24187.61407017 -.00000066  00000+0 -21200-3 0  9998
2 48217  87.8953  71.2623 0001527  65.6911 294.4378 13.14500890154747
ONEWEB-0196             
1 48218U 21031J   24187.21129461  .00000263  00000+0  67490-3 0  9997
2 48218  87.8956  71.3468 0001821  75.9984 284.1348 13.14504992154683
ONEWEB-0183             
1 48219U 21031K   24187.41428545  .00000149  00000+0  36778-3 0  9993
2 48219  87.8954  71.3224 0001760  83.0698 277.0632 13.14502434154817
ONEWEB-0185             
1 48220U 21031L   24187.59266761  .00000233  00000+0  59488-3 0  9991
2 48220  87.8955  71.2592 0001672  82.6729 277.4590 13.14501669154769
ONEWEB-0187             
1 48221U 21031M   24187.41029902 -.00000138  00000+0 -40743-3 0  9997
2 48221  87.8954  71.3281 0001736  81.4714 278.6612 13.14501989154759
ONEWEB-0192             
1 48222U 21031N   24187.61886442  .00002967  00000+0  79685-2 0  9996
2 48222  87.8956  71.2839 0001855  67.1544 292.9782 13.14488408154694
ONEWEB-0219             
1 48223U 21031P   24187.59821861  .00000234  00000+0  59731-3 0  9994
2 48223  87.8956  71.2623 0001646  79.4311 280.7004 13.14501527154894
ONEWEB-0202             
1 48224U 21031Q   24187.42695326  .00000117  00000+0  27978-3 0  9990
2 48224  87.8954  71.3153 0001552  50.8451 309.2816 13.14502187154853
ONEWEB-0204             
1 48225U 21031R   24187.61327888 -.00000058  00000+0 -19137-3 0  9991
2 48225  87.8954  71.2904 0002000  90.5558 269.5801 13.14501228154773
ONEWEB-0205             
1 48226U 21031S   24187.43646918  .00000262  00000+0  67291-3 0  9999
2 48226  87.8952  71.2968 0001609  79.4755 280.6555 13.14501866154768
ONEWEB-0206             
1 48227U 21031T   24187.40950921 -.00000105  00000+0 -31741-3 0  9998
2 48227  87.8950  71.2909 0001636  83.1303 277.0013 13.14501793154716
ONEWEB-0182             
1 48228U 21031U   24187.40474335 -.00000175  00000+0 -50543-3 0  9997
2 48228  87.8956  71.3199 0001906  83.9978 276.1369 13.14500807154923
ONEWEB-0186             
1 48229U 21031V   24187.41585764 -.00000012  00000+0 -68196-4 0  9992
2 48229  87.8955  71.2814 0001806  77.4077 282.7255 13.14502357154876
ONEWEB-0181             
1 48230U 21031W   24187.24140804 -.00000109  00000+0 -32805-3 0  9991
2 48230  87.8956  71.3859 0001793  73.8205 286.3121 13.14501309154707
ONEWEB-0188             
1 48231U 21031X   24187.43171501  .00000253  00000+0  64745-3 0  9997
2 48231  87.8953  71.3436 0001757  79.6652 280.4675 13.14503627154632
ONEWEB-0220             
1 48232U 21031Y   24187.24299196  .00000003  00000+0 -27328-4 0  9999
2 48232  87.8948  71.3445 0001453  82.0829 278.0466 13.14501923154878
ONEWEB-0165             
1 48233U 21031Z   24187.42377036 -.00000167  00000+0 -48595-3 0  9990
2 48233  87.8955  71.3264 0001651  75.9416 284.1897 13.14502377154857
ONEWEB-0199             
1 48234U 21031AA  24187.40792733 -.00000041  00000+0 -14420-3 0  9995
2 48234  87.8955  71.2987 0002110  77.8171 282.3195 13.14502376154758
ONEWEB-0203             
1 48235U 21031AB  24187.24616557 -.00000375  00000+0 -10454-2 0  9999
2 48235  87.8955  71.3327 0002178  68.6131 291.5231 13.14503361154743
ONEWEB-0197             
1 48236U 21031AC  24187.60218277  .00000142  00000+0  34885-3 0  9992
2 48236  87.8955  71.2704 0001940  89.7464 270.3888 13.14501149154702
ONEWEB-0194             
1 48237U 21031AD  24187.42854469  .00000185  00000+0  46439-3 0  9997
2 48237  87.8955  71.2981 0002104  75.3761 284.7602 13.14502556154856
ONEWEB-0193             
1 48238U 21031AE  24187.59663180  .00000243  00000+0  62187-3 0  9997
2 48238  87.8956  71.2729 0001839  74.2055 285.9277 13.14501683154824
ONEWEB-0191             
1 48239U 21031AF  24187.60773000  .00000070  00000+0  15530-3 0  9991
2 48239  87.8953  71.2537 0001842  75.3436 284.7898 13.14501052154688
ONEWEB-0195             
1 48240U 21031AG  24187.43251581  .00000231  00000+0  58728-3 0  9994
2 48240  87.8952  71.2878 0001496  69.1260 291.0030 13.14501893154646
ONEWEB-0201             
1 48241U 21031AH  24187.42139166 -.00000220  00000+0 -62836-3 0  9993
2 48241  87.8955  71.3250 0001685  77.4429 282.6889 13.14503152154877
ONEWEB-0207             
1 48242U 21031AJ  24187.40079105 -.00000177  00000+0 -51186-3 0  9995
2 48242  87.8953  71.2946 0001735  86.7180 273.4148 13.14502575154784
